OBJECT C                
1 57582U 23117C   25149.83811666  .00009438  00000+0  37125-3 0  9995
2 57582  97.4449 224.8215 0009887 152.7632 207.4127 15.25822538 99875
